TIANMU-1 20             
1 58661U 23208B   26189.93131300  .00005394  00000+0  17114-3 0  9994
2 58661  97.4456 307.0069 0005847 237.7260 122.3416 15.33099113140750
TIANMU-1 21             
1 58662U 23208C   26189.95168934  .00006627  00000+0  19456-3 0  9991
2 58662  97.4516 309.8033 0006115 228.5762 131.4956 15.35474050140909
TIANMU-1 22             
1 58663U 23208D   26189.96500472  .00004888  00000+0  16398-3 0  9999
2 58663  97.4511 306.3001 0002330 250.8901 109.2088 15.31367815140668
TIANMU-1 15             
1 58700U 24004A   26189.98700937  .00003497  00000+0  13529-3 0  9994
2 58700  97.4673  16.1779 0005726 255.5298 104.5306 15.26871532139108
TIANMU-1 16             
1 58701U 24004B   26189.97689495  .00003625  00000+0  13974-3 0  9996
2 58701  97.4620  15.3877 0004315 275.5651  84.5095 15.26974484139101
TIANMU-1 17             
1 58702U 24004C   26189.96236900  .00003500  00000+0  13500-3 0  9992
2 58702  97.4649  15.8662 0003867 283.4419  76.6389 15.26972330139095
TIANMU-1 18             
1 58703U 24004D   26189.93811213  .00003468  00000+0  13415-3 0  9994
2 58703  97.4667  16.1040 0003398 255.4730 104.6132 15.26888703139092
INSAT-3DS               
1 58990U 24033A   26189.87205888 -.00000142  00000+0  00000+0 0  9991
2 58990   0.0123 313.7382 0001193 165.6770 203.4161  1.00272599 47285
METEOR-M2 4             
1 59051U 24039A   26189.98944522 -.00000006  00000+0  17075-4 0  9997
2 59051  98.7021 149.0147 0008189 104.1617 256.0471 14.22431722122368
GOES 19                 
1 60133U 24119A   26189.84108685 -.00000234  00000+0  00000+0 0  9994
2 60133   0.0119 263.9197 0000493 290.0939 320.3727  1.00271136  7182
MTG-S1                  
1 64723U 25143A   26189.85583111  .00000007  00000+0  00000+0 0  9990
2 64723   0.5879 343.5371 0003354 262.1393 348.7838  1.00272591  3630
METOP-SGA1              
1 65159U 25172A   26189.77437474  .00000015  00000+0  27536-4 0  9994
2 65159  98.6633 249.0456 0007423 351.7022   8.4031 14.19818497 46850
FENGYUN 3H              
1 65815U 25219A   26189.81509068  .00000023  00000+0  31168-4 0  9994
2 65815  98.6772 130.1641 0001281  63.2682 296.8626 14.19924164 40454
